OBJECT_NAME,OBJECT_ID,EPOCH,MEAN_MOTION,ECCENTRICITY,INCLINATION,RA_OF_ASC_NODE,ARG_OF_PERICENTER,MEAN_ANOMALY,EPHEMERIS_TYPE,CLASSIFICATION_TYPE,NORAD_CAT_ID,ELEMENT_SET_NO,REV_AT_EPOCH,BSTAR,MEAN_MOTION_DOT,MEAN_MOTION_DDOT
GUOWANG TEST OBJECT B,2026-120B,2026-06-04T06:41:24.658368,15.39121370,.00091004,55.0006,85.8667,296.4175,63.5919,0,U,69321,999,70,.6938966E-3,.27005E-3,0
GUOWANG TEST OBJECT C,2026-120C,2026-06-05T01:22:07.572576,15.39445008,.00093365,54.9977,82.3496,301.6067,58.4050,0,U,69322,999,82,.53988585E-3,.21135E-3,0
GUOWANG TEST OBJECT D,2026-120D,2026-06-04T15:59:40.712352,15.39704502,.00080029,55.0029,84.1123,301.7889,58.2360,0,U,69323,999,76,.80800046E-3,.32137E-3,0
QIANFAN-163,2026-121A,2026-06-05T07:24:04.808736,13.60350693,.0018934,89.0163,301.7172,222.3655,137.6040,0,U,69325,999,54,.17623378E-4,.25E-6,0
QIANFAN-164,2026-121B,2026-06-05T07:23:26.710656,13.60503870,.00183225,89.0159,301.7168,223.8411,136.1293,0,U,69326,999,54,.15622898E-3,.13E-5,0
SZ-22 MODULE,2025-272C,2026-06-04T22:45:01.755936,15.59719201,.0008356,41.4810,36.4880,350.2706,9.7969,0,U,69328,999,141,.27599E-3,.2247E-3,0
